satname,norad_id,inclination_deg,eccentricity,mean_motion_rev_per_day,perigee_km,apogee_km,l1,l2
STARLINK-1420,45695,53.0463,0.0006274,15.66156412,365.681254164625,374.1487097916106,1 45695U 20035AQ  26141.93115815  .00039976  00000+0  38466-3 0  9999,2 45695  53.0463  25.2171 0006274  83.9646 276.2084 15.66156412330793
STARLINK-1422,45696,53.1576,0.0003679,15.33441854,463.03474139689024,468.0703281565793,1 45696U 20035AR  26141.94240602  .00034939  00000+0  10722-2 0  9992,2 45696  53.1576  68.7775 0003679  96.7274 263.4147 15.33441854330190
STARLINK-1351,45697,53.0443,0.0005635,15.64678822,370.3576998402623,377.9675415127649,1 45697U 20035AS  26141.93495137  .00035249  00000+0  36063-3 0  9999,2 45697  53.0443  25.4322 0005635  94.8973 265.2685 15.64678822330794
STARLINK-1400,45700,53.0437,0.0004262,15.62361239,377.9578015264224,383.71915222290954,1 45700U 20035AV  26141.93177681  .00078294  00000+0  86553-3 0  9991,2 45700  53.0437  27.8139 0004262  54.4673 305.6737 15.62361239330750
STARLINK-1403,45701,53.1576,0.000302,15.32330361,466.7937725168522,470.92935965076686,1 45701U 20035AW  26141.03066954  .00023483  00000+0  75118-3 0  9998,2 45701  53.1576  60.4449 0003020 100.2803 259.8539 15.32330361330220
STARLINK-1407,45703,53.0294,0.0003378,15.71379342,352.6795239998155,357.228400253829,1 45703U 20035AY  26141.75979884  .00126641  00000+0  96444-3 0  9999,2 45703  53.0294 316.3350 0003378 357.3777   2.7221 15.71379342331749
STARLINK-1411,45706,53.0337,0.0002298,15.82088622,322.9947637145842,326.07531178313366,1 45706U 20035BB  26142.00003472  .00165063  00000+0  77872-3 0  9997,2 45706  53.0337 338.2298 0002298 249.3557 281.9589 15.82088622  5959
STARLINK-1423,45710,53.0448,0.0007347,15.67073328,362.32661396425283,372.2383333388352,1 45710U 20035BF  26141.84447370  .00040426  00000+0  37470-3 0  9997,2 45710  53.0448  25.2046 0007347  56.0890 304.0823 15.67073328330773
STARLINK-1433,45711,53.0444,0.0007326,15.66666667,363.507149925078,373.39224875695254,1 45711U 20035BG  26141.95288483  .00040623  00000+0  38271-3 0  9997,2 45711  53.0444  23.2183 0007326  61.0123 299.1626 15.66666667330815
STARLINK-1434,45712,53.0504,0.0003468,15.32838183,464.9752159055861,469.7232451550808,1 45712U 20035BH  26141.92418938  .00029842  00000+0  93556-3 0  9992,2 45712  53.0504  39.0971 0003468  58.9703 301.1637 15.32838183330605
STARLINK-1465,45731,53.0438,0.000214,15.61176636,382.80998120983986,385.70428589900075,1 45731U 20038B   26141.61956809  .00055209  00000+0  64270-3 0  9993,2 45731  53.0438 230.1293 0002140 313.3811  46.7024 15.61176636327739
STARLINK-1471,45735,53.0439,0.0003066,15.52536144,407.24318923721785,411.4052604602957,1 45735U 20038F   26141.27395953  .00016645  00000+0  27365-3 0  9991,2 45735  53.0439 153.2424 0003066  68.1965 291.9370 15.52536144328797
STARLINK-1480,45741,53.0458,0.0006125,15.62814543,375.3923534149035,383.67049723592663,1 45741U 20038M   26141.65836704  .00058890  00000+0  64232-3 0  9996,2 45741  53.0458 223.5257 0006125 333.7082  26.3619 15.62814543327844
STARLINK-1500,45744,53.0346,0.0002349,15.38347523,449.39130346255206,452.5996298953978,1 45744U 20038Q   26141.64934137  .00029761  00000+0  78280-3 0  9990,2 45744  53.0346 209.5037 0002349  95.6429 264.4842 15.38347523328033
STARLINK-1504,45746,53.0199,0.0003677,15.5775798,391.6571837072079,396.6375216201559,1 45746U 20038S   26141.22013662  .00022488  00000+0  30312-3 0  9990,2 45746  53.0199 150.9673 0003677  48.6966 311.4361 15.57757980328802
STARLINK-1506,45747,53.0756,0.0003404,15.27979934,479.5166707896369,484.1869511721525,1 45747U 20038T   26141.62923413  .00005080  00000+0  19618-3 0  9994,2 45747  53.0756 224.4619 0003404 116.0066 244.1284 15.27979934327838
STARLINK-1464,45751,53.0442,0.0003354,15.5295141,405.83806439149794,410.3902816783693,1 45751U 20038X   26141.56508367  .00036382  00000+0  57904-3 0  9998,2 45751  53.0442 215.7232 0003354 349.0498  11.0437 15.52951410327940
STARLINK-1477,45754,53.0455,6.63e-05,15.18035745,511.3208588194684,512.2344615034062,1 45754U 20038AA  26141.60089352  .00018046  00000+0  88897-3 0  9996,2 45754  53.0455 240.5963 0000663 220.7103 139.3842 15.18035745327593
STARLINK-1478,45755,53.0444,0.0003385,15.66384623,366.97554383176976,371.543531287698,1 45755U 20038AB  26141.54333543  .00066734  00000+0  63107-3 0  9998,2 45755  53.0444 202.3103 0003385   5.9053 354.2001 15.66384623328114
STARLINK-1493,45759,53.0464,0.0006534,15.6221507,376.84348361357115,385.6766637094315,1 45759U 20038AF  26141.84575294  .00060095  00000+0  67062-3 0  9994,2 45759  53.0464 210.0590 0006534 330.4579  29.6064 15.62215070328032
STARLINK-1494,45760,53.0393,0.0006217,15.95927303,281.5888763210587,289.8747307914,1 45760U 20038AG  26142.00003472  .00276223  41322-4  66620-3 0  9997,2 45760  53.0393 141.8284 0006217  27.2088 173.6559 15.95927303  6037
STARLINK-1502,45764,53.0449,0.0006177,15.58486193,387.855655006324,396.2195286970982,1 45764U 20038AL  26141.60192849  .00055373  00000+0  71354-3 0  9997,2 45764  53.0449 214.6034 0006177 303.8753  56.1670 15.58486193327965
STARLINK-1470,45772,53.0419,0.0003562,15.338484,461.90591150359796,466.78049440018094,1 45772U 20038AU  26141.52068003  .00022989  00000+0  70140-3 0  9990,2 45772  53.0419 194.6460 0003562 341.0990  18.9878 15.33848400328236
STARLINK-1482,45773,53.1554,0.0003707,15.36266069,454.6286593071227,459.69635036000636,1 45773U 20038AV  26141.55864597  .00028949  00000+0  81465-3 0  9990,2 45773  53.1554 210.9829 0003707 334.5148  25.5672 15.36266069328023
STARLINK-1496,45780,53.0451,0.0007984,15.59947546,382.40681758634764,393.21067975782717,1 45780U 20038BC  26141.55313935  .00059897  00000+0  72898-3 0  9999,2 45780  53.0451 185.8502 0007984  17.7772 342.3518 15.59947546328343
STARLINK-1513,45786,53.1585,0.0001065,15.3172049,469.9495173876685,471.4083151778368,1 45786U 20038BJ  26140.69765514  .00002174  00000+0  81752-4 0  9999,2 45786  53.1585 216.3006 0001065  79.5045 280.6076 15.31720490327877
STARLINK-1522,46027,53.0614,0.0003015,15.1228094,527.1631835727376,531.328335376701,1 46027U 20055A   26141.45107326  .00013751  00000+0  80105-3 0  9996,2 46027  53.0614 157.6900 0003015   2.5759 357.5248 15.12280940319880
STARLINK-1523,46028,53.1607,0.0001466,15.30187893,474.24651226446804,476.2559256902723,1 46028U 20055B   26141.28291737 -.00000218  00000+0  47828-5 0  9990,2 46028  53.1607 149.5152 0001466  91.4081 268.7087 15.30187893320010
STARLINK-1526,46029,53.1607,0.0001248,15.30177869,474.4258428075591,476.13645597764844,1 46029U 20055C   26141.21129194 -.00000862  00000+0 -16987-4 0  9998,2 46029  53.1607 149.8576 0001248  88.6942 271.4202 15.30177869319993
STARLINK-1555,46032,53.1585,0.0001374,15.30194602,474.2895341328258,476.1728397105917,1 46032U 20055F   26141.26080341 -.00002069  00000+0 -57741-4 0  9991,2 46032  53.1585 149.6097 0001374  89.6948 270.4210 15.30194602320001
STARLINK-1556,46033,53.1622,0.0001475,15.30201462,474.1998353679646,476.22157294068893,1 46033U 20055G   26141.43988257 -.00001100  00000+0 -25009-4 0  9991,2 46033  53.1622 148.7985 0001475 100.8259 259.2908 15.30201462320005
STARLINK-1557,46034,53.1617,0.0001323,15.3018839,474.3430319407471,476.1564380708296,1 46034U 20055H   26141.44304980 -.00000353  00000+0  20250-6 0  9991,2 46034  53.1617 148.7786 0001323  90.6036 269.5117 15.30188390320000
STARLINK-1558,46035,53.1601,0.0001168,15.30189154,474.44697850739703,476.04792911580716,1 46035U 20055J   26141.45042311  .00000205  00000+0  19054-4 0  9993,2 46035  53.1601 148.7430 0001168  87.1511 272.9624 15.30189154320039
STARLINK-1560,46036,53.1614,0.0001147,15.30186602,474.46898965335095,476.04115779506265,1 46036U 20055K   26141.30609765  .00000658  00000+0  34349-4 0  9996,2 46036  53.1614 149.4201 0001147  76.8247 283.2881 15.30186602320019
STARLINK-1569,46039,53.1599,0.0001215,15.30187057,474.4210281848418,476.0864021286252,1 46039U 20055N   26141.32295451 -.00000497  00000+0 -46505-5 0  9995,2 46039  53.1599 149.3278 0001215  94.6917 265.4223 15.30187057320001
STARLINK-1582,46043,53.1592,0.0001331,15.31698024,469.8342992730859,471.6574718972288,1 46043U 20055S   26141.94470017  .00000590  00000+0  30787-4 0  9997,2 46043  53.1592 146.0267 0001331  95.7617 264.3536 15.31698024320107
STARLINK-1591,46045,53.16,0.0001509,15.30187596,474.2179293616118,476.2862821937342,1 46045U 20055U   26141.29029676  .00000020  00000+0  12799-4 0  9999,2 46045  53.1600 149.4811 0001509  92.2200 267.8974 15.30187596319982
STARLINK-1524,46047,53.16,0.0001183,15.31700413,469.928542091523,471.54898609730753,1 46047U 20055W   26141.26152948 -.00000171  00000+0  62500-5 0  9991,2 46047  53.1600 136.5032 0001183  79.7407 280.3728 15.31700413320184
STARLINK-1527,46048,53.1599,0.000128,15.31698657,469.86734187386264,471.62065540951426,1 46048U 20055X   26141.38736058  .00000173  00000+0  17331-4 0  9997,2 46048  53.1599 135.8993 0001280  87.2350 272.8798 15.31698657320177
STARLINK-1540,46051,53.161,0.0001377,15.31698849,469.80033546420145,471.68651713360396,1 46051U 20055AA  26141.96066610 -.00001262  00000+0 -28890-4 0  9999,2 46051  53.1610 133.4343 0001377 108.8204 251.2947 15.31698849320308
STARLINK-1541,46052,53.1595,0.000208,15.78286267,333.89956275626446,336.6923508662976,1 46052U 20055AB  26141.93982030  .00109731  00000+0  62123-3 0  9994,2 46052  53.1595 123.4045 0002080  94.5256 265.6004 15.78286267320401
STARLINK-1543,46053,53.1598,0.0001401,15.31696138,469.7919783909492,471.7110369507991,1 46053U 20055AC  26141.28017185  .00000064  00000+0  13817-4 0  9999,2 46053  53.1598 136.4144 0001401  91.6601 268.4560 15.31696138320192
STARLINK-1548,46054,53.1603,0.0001314,15.31691486,469.8654293620848,471.6653209062697,1 46054U 20055AD  26141.35941922 -.00000040  00000+0  10477-4 0  9997,2 46054  53.1603 136.1195 0001314  96.8078 263.3073 15.31691486320207
